[{"OBJECT_NAME":"ONEWEB-0440","OBJECT_ID":"2021-132AL","EPOCH":"2026-03-09T17:18:21.508992","MEAN_MOTION":13.18686204,"ECCENTRICITY":0.00015537,"INCLINATION":87.9253,"RA_OF_ASC_NODE":355.2047,"ARG_OF_PERICENTER":88.5982,"MEAN_ANOMALY":271.5328,"EPHEMERIS_TYPE":0,"CLASSIFICATION_TYPE":"U","NORAD_CAT_ID":50503,"ELEMENT_SET_NO":999,"REV_AT_EPOCH":20846,"BSTAR":-0.0001846939,"MEAN_MOTION_DOT":-6.0e-7,"MEAN_MOTION_DDOT":0},{"OBJECT_NAME":"SL-8 R\/B","OBJECT_ID":"1968-106B","EPOCH":"2026-03-09T16:20:09.900096","MEAN_MOTION":13.19131001,"ECCENTRICITY":0.00341644,"INCLINATION":74.0517,"RA_OF_ASC_NODE":137.3134,"ARG_OF_PERICENTER":143.4036,"MEAN_ANOMALY":333.6648,"EPHEMERIS_TYPE":0,"CLASSIFICATION_TYPE":"U","NORAD_CAT_ID":3577,"ELEMENT_SET_NO":999,"REV_AT_EPOCH":75627,"BSTAR":6.8339382e-5,"MEAN_MOTION_DOT":8.0e-8,"MEAN_MOTION_DDOT":0}]
